STARLINK-1487
1 15758C 20038AE  21326.14235698  .00005142  00000-0  34443-3 0  3261
2 15758  53.0543  58.1066 0001190  72.1143 162.6221 15.06401980    11
